[{"OBJECT_NAME":"STARLINK-37113","OBJECT_ID":"2026-057AA","EPOCH":"2026-03-26T06:00:02.000160","MEAN_MOTION":16.09465467,"ECCENTRICITY":0.00012041,"INCLINATION":97.2815,"RA_OF_ASC_NODE":208.1375,"ARG_OF_PERICENTER":50.793,"MEAN_ANOMALY":55.5155,"EPHEMERIS_TYPE":0,"CLASSIFICATION_TYPE":"U","NORAD_CAT_ID":68318,"ELEMENT_SET_NO":999,"REV_AT_EPOCH":192,"BSTAR":-0.00094326073,"MEAN_MOTION_DOT":-0.00843818,"MEAN_MOTION_DDOT":0.00026835603},{"OBJECT_NAME":"PROGRESS-MS 33","OBJECT_ID":"2026-058A","EPOCH":"2026-03-26T03:56:25.626336","MEAN_MOTION":15.48550942,"ECCENTRICITY":0.00062355,"INCLINATION":51.6341,"RA_OF_ASC_NODE":350.9181,"ARG_OF_PERICENTER":233.8862,"MEAN_ANOMALY":126.1549,"EPHEMERIS_TYPE":0,"CLASSIFICATION_TYPE":"U","NORAD_CAT_ID":68319,"ELEMENT_SET_NO":999,"REV_AT_EPOCH":33,"BSTAR":0.00025199987,"MEAN_MOTION_DOT":0.00013248,"MEAN_MOTION_DDOT":0},{"OBJECT_NAME":"CENTISPACE-1 OBJECT A","OBJECT_ID":"2026-060A","EPOCH":"2026-03-26T00:36:43.656192","MEAN_MOTION":14.74886326,"ECCENTRICITY":0.00127263,"INCLINATION":54.9834,"RA_OF_ASC_NODE":14.9809,"ARG_OF_PERICENTER":300.1022,"MEAN_ANOMALY":59.8715,"EPHEMERIS_TYPE":0,"CLASSIFICATION_TYPE":"U","NORAD_CAT_ID":68350,"ELEMENT_SET_NO":999,"REV_AT_EPOCH":50,"BSTAR":3.2598833e-5,"MEAN_MOTION_DOT":1.1e-7,"MEAN_MOTION_DDOT":0},{"OBJECT_NAME":"CENTISPACE-1 OBJECT B","OBJECT_ID":"2026-060B","EPOCH":"2026-03-26T02:14:13.801056","MEAN_MOTION":14.74919091,"ECCENTRICITY":0.0013009,"INCLINATION":54.9834,"RA_OF_ASC_NODE":14.7039,"ARG_OF_PERICENTER":301.4041,"MEAN_ANOMALY":58.5685,"EPHEMERIS_TYPE":0,"CLASSIFICATION_TYPE":"U","NORAD_CAT_ID":68351,"ELEMENT_SET_NO":999,"REV_AT_EPOCH":51,"BSTAR":3.2811847e-5,"MEAN_MOTION_DOT":1.3e-7,"MEAN_MOTION_DDOT":0},{"OBJECT_NAME":"CENTISPACE-1 OBJECT C","OBJECT_ID":"2026-060C","EPOCH":"2026-03-26T05:28:46.943040","MEAN_MOTION":14.75104807,"ECCENTRICITY":0.00123682,"INCLINATION":54.9837,"RA_OF_ASC_NODE":14.1489,"ARG_OF_PERICENTER":307.4498,"MEAN_ANOMALY":52.5375,"EPHEMERIS_TYPE":0,"CLASSIFICATION_TYPE":"U","NORAD_CAT_ID":68352,"ELEMENT_SET_NO":999,"REV_AT_EPOCH":53,"BSTAR":3.4178633e-5,"MEAN_MOTION_DOT":2.3e-7,"MEAN_MOTION_DDOT":0},{"OBJECT_NAME":"CENTISPACE-1 OBJECT D","OBJECT_ID":"2026-060D","EPOCH":"2026-03-25T21:20:45.019680","MEAN_MOTION":14.75148967,"ECCENTRICITY":0.0012248,"INCLINATION":54.9856,"RA_OF_ASC_NODE":15.5356,"ARG_OF_PERICENTER":306.2125,"MEAN_ANOMALY":53.7741,"EPHEMERIS_TYPE":0,"CLASSIFICATION_TYPE":"U","NORAD_CAT_ID":68353,"ELEMENT_SET_NO":999,"REV_AT_EPOCH":48,"BSTAR":3.2765e-5,"MEAN_MOTION_DOT":1.3e-7,"MEAN_MOTION_DDOT":0},{"OBJECT_NAME":"CENTISPACE-1 OBJECT E","OBJECT_ID":"2026-060E","EPOCH":"2026-03-25T21:20:33.931968","MEAN_MOTION":14.7520517,"ECCENTRICITY":0.0012775,"INCLINATION":54.9772,"RA_OF_ASC_NODE":15.5359,"ARG_OF_PERICENTER":305.556,"MEAN_ANOMALY":54.4247,"EPHEMERIS_TYPE":0,"CLASSIFICATION_TYPE":"U","NORAD_CAT_ID":68354,"ELEMENT_SET_NO":999,"REV_AT_EPOCH":48,"BSTAR":3.2809e-5,"MEAN_MOTION_DOT":1.4e-7,"MEAN_MOTION_DDOT":0},{"OBJECT_NAME":"CENTISPACE-1 OBJECT F","OBJECT_ID":"2026-060F","EPOCH":"2026-03-26T07:05:54.064896","MEAN_MOTION":14.75232431,"ECCENTRICITY":0.0013551,"INCLINATION":54.9787,"RA_OF_ASC_NODE":13.8696,"ARG_OF_PERICENTER":307.0302,"MEAN_ANOMALY":52.9458,"EPHEMERIS_TYPE":0,"CLASSIFICATION_TYPE":"U","NORAD_CAT_ID":68355,"ELEMENT_SET_NO":999,"REV_AT_EPOCH":54,"BSTAR":3.4213148e-5,"MEAN_MOTION_DOT":2.3e-7,"MEAN_MOTION_DDOT":0},{"OBJECT_NAME":"CENTISPACE-1 OBJECT G","OBJECT_ID":"2026-060G","EPOCH":"2026-03-26T02:12:55.338624","MEAN_MOTION":14.7531387,"ECCENTRICITY":0.00136311,"INCLINATION":54.9884,"RA_OF_ASC_NODE":14.7004,"ARG_OF_PERICENTER":307.8185,"MEAN_ANOMALY":52.158,"EPHEMERIS_TYPE":0,"CLASSIFICATION_TYPE":"U","NORAD_CAT_ID":68356,"ELEMENT_SET_NO":999,"REV_AT_EPOCH":51,"BSTAR":3.3239364e-5,"MEAN_MOTION_DOT":1.7e-7,"MEAN_MOTION_DDOT":0},{"OBJECT_NAME":"CENTISPACE-1 OBJECT H","OBJECT_ID":"2026-060H","EPOCH":"2026-03-25T14:49:38.254368","MEAN_MOTION":14.75425125,"ECCENTRICITY":0.00144709,"INCLINATION":54.9848,"RA_OF_ASC_NODE":16.6351,"ARG_OF_PERICENTER":304.4277,"MEAN_ANOMALY":55.5354,"EPHEMERIS_TYPE":0,"CLASSIFICATION_TYPE":"U","NORAD_CAT_ID":68357,"ELEMENT_SET_NO":999,"REV_AT_EPOCH":44,"BSTAR":3.3491501e-5,"MEAN_MOTION_DOT":1.9e-7,"MEAN_MOTION_DDOT":0},{"OBJECT_NAME":"CENTISPACE-1 OBJECT J","OBJECT_ID":"2026-060J","EPOCH":"2026-03-25T14:49:37.060320","MEAN_MOTION":14.75435012,"ECCENTRICITY":0.0013871,"INCLINATION":54.9877,"RA_OF_ASC_NODE":16.6351,"ARG_OF_PERICENTER":306.1411,"MEAN_ANOMALY":53.8304,"EPHEMERIS_TYPE":0,"CLASSIFICATION_TYPE":"U","NORAD_CAT_ID":68358,"ELEMENT_SET_NO":999,"REV_AT_EPOCH":44,"BSTAR":3.3263e-5,"MEAN_MOTION_DOT":1.7e-7,"MEAN_MOTION_DDOT":0},{"OBJECT_NAME":"CENTISPACE-1 OBJECT K","OBJECT_ID":"2026-060K","EPOCH":"2026-03-26T02:12:18.021600","MEAN_MOTION":14.75496841,"ECCENTRICITY":0.00143654,"INCLINATION":54.9793,"RA_OF_ASC_NODE":14.6986,"ARG_OF_PERICENTER":306.8084,"MEAN_ANOMALY":53.1597,"EPHEMERIS_TYPE":0,"CLASSIFICATION_TYPE":"U","NORAD_CAT_ID":68359,"ELEMENT_SET_NO":999,"REV_AT_EPOCH":51,"BSTAR":3.3321653e-5,"MEAN_MOTION_DOT":1.8e-7,"MEAN_MOTION_DDOT":0}]
